GLOBALSTAR M024         
1 25883U 99043A   25034.94162538 -.00000083  00000+0 -66036-3 0  9999
2 25883  52.0055 321.2741 0000919 237.7898 200.3005 11.10166215100069
GLOBALSTAR M027         
1 25884U 99043B   25034.26609218 -.00000061  00000+0  11196-3 0  9998
2 25884  52.0235  36.9814 0021512 135.2227 225.0306 11.04370869126444
GLOBALSTAR M054         
1 25885U 99043C   25034.58693940 -.00000055  00000+0  41193-3 0  9992
2 25885  52.0114 185.9877 0004783 313.3371 126.5383 11.39216335104154
GLOBALSTAR M053         
1 25886U 99043D   25035.18654950 -.00000044  00000+0  72517-3 0  9990
2 25886  51.9979 124.2668 0003626 201.2295 170.8887 11.27662803104581
GLOBALSTAR M033         
1 25909U 99049C   25034.91926990 -.00000170  00000+0 -75176-3 0  9993
2 25909  51.9945   3.7031 0013270 350.0065  10.0517 12.20289854519477
